[ {"OBJECT_NAME": "LEMUR-2-BASS", "OBJECT_ID": "2023-174D", "EPOCH": "2026-06-11T22:58:36.532992", "MEAN_MOTION": 15.42919895, "ECCENTRICITY": 0.00073593, "INCLINATION": 97.385, "RA_OF_ASC_NODE": 247.5972, "ARG_OF_PERICENTER": 179.0923, "MEAN_ANOMALY": 181.0339, "EPHEMERIS_TYPE": 0, "CLASSIFICATION_TYPE": "U", "NORAD_CAT_ID": 58259, "ELEMENT_SET_NO": 999, "REV_AT_EPOCH": 14455, "BSTAR": 0.00036804018, "MEAN_MOTION_DOT": 0.00016116, "MEAN_MOTION_DDOT": 0}, {"OBJECT_NAME": "UMBRA-07", "OBJECT_ID": "2023-174AT", "EPOCH": "2026-06-11T17:38:01.100544", "MEAN_MOTION": 15.09032717, "ECCENTRICITY": 0.00049325, "INCLINATION": 97.3798, "RA_OF_ASC_NODE": 218.7034, "ARG_OF_PERICENTER": 100.6472, "MEAN_ANOMALY": 259.5313, "EPHEMERIS_TYPE": 0, "CLASSIFICATION_TYPE": "U", "NORAD_CAT_ID": 58297, "ELEMENT_SET_NO": 999, "REV_AT_EPOCH": 14259, "BSTAR": 0.0005305553, "MEAN_MOTION_DOT": 8.34e-05, "MEAN_MOTION_DDOT": 0}, {"OBJECT_NAME": "LEMUR-2-MJR092620", "OBJECT_ID": "2023-174CN", "EPOCH": "2026-06-11T18:46:33.362112", "MEAN_MOTION": 15.4467641, "ECCENTRICITY": 0.00070888, "INCLINATION": 97.3975, "RA_OF_ASC_NODE": 252.7125, "ARG_OF_PERICENTER": 133.4041, "MEAN_ANOMALY": 226.7799, "EPHEMERIS_TYPE": 0, "CLASSIFICATION_TYPE": "U", "NORAD_CAT_ID": 58340, "ELEMENT_SET_NO": 999, "REV_AT_EPOCH": 14481, "BSTAR": 0.00039210165, "MEAN_MOTION_DOT": 0.00018229, "MEAN_MOTION_DDOT": 0}, {"OBJECT_NAME": "STARLINK-30891", "OBJECT_ID": "2023-177S", "EPOCH": "2026-06-10T19:01:43.728672", "MEAN_MOTION": 15.27565144, "ECCENTRICITY": 0.00039513, "INCLINATION": 43.0214, "RA_OF_ASC_NODE": 185.04, "ARG_OF_PERICENTER": 271.7019, "MEAN_ANOMALY": 88.338, "EPHEMERIS_TYPE": 0, "CLASSIFICATION_TYPE": "U", "NORAD_CAT_ID": 58367, "ELEMENT_SET_NO": 999, "REV_AT_EPOCH": 14240, "BSTAR": -7.3828547e-05, "MEAN_MOTION_DOT": -2.294e-05, "MEAN_MOTION_DDOT": 0}, {"OBJECT_NAME": "STARLINK-30929", "OBJECT_ID": "2023-178N", "EPOCH": "2026-06-11T16:08:39.758496", "MEAN_MOTION": 15.3439688, "ECCENTRICITY": 0.0001139, "INCLINATION": 53.1598, "RA_OF_ASC_NODE": 283.4104, "ARG_OF_PERICENTER": 76.5528, "MEAN_ANOMALY": 283.5601, "EPHEMERIS_TYPE": 0, "CLASSIFICATION_TYPE": "U", "NORAD_CAT_ID": 58386, "ELEMENT_SET_NO": 999, "REV_AT_EPOCH": 14427, "BSTAR": 1.1768005e-05, "MEAN_MOTION_DOT": 2.1e-07, "MEAN_MOTION_DDOT": 0}, {"OBJECT_NAME": "STARLINK-30919", "OBJECT_ID": "2023-180K", "EPOCH": "2026-06-09T23:18:08.290656", "MEAN_MOTION": 15.27579044, "ECCENTRICITY": 0.00010069, "INCLINATION": 43.0049, "RA_OF_ASC_NODE": 250.9416, "ARG_OF_PERICENTER": 261.9571, "MEAN_ANOMALY": 98.1166, "EPHEMERIS_TYPE": 0, "CLASSIFICATION_TYPE": "U", "NORAD_CAT_ID": 58411, "ELEMENT_SET_NO": 999, "REV_AT_EPOCH": 14164, "BSTAR": 1.9316018e-05, "MEAN_MOTION_DOT": 2.7e-06, "MEAN_MOTION_DDOT": 0}, {"OBJECT_NAME": "STARLINK-30969", "OBJECT_ID": "2023-183B", "EPOCH": "2026-06-10T22:17:30.095520", "MEAN_MOTION": 15.27574038, "ECCENTRICITY": 0.0002318, "INCLINATION": 43.0144, "RA_OF_ASC_NODE": 235.0955, "ARG_OF_PERICENTER": 280.5337, "MEAN_ANOMALY": 79.5254, "EPHEMERIS_TYPE": 0, "CLASSIFICATION_TYPE": "U", "NORAD_CAT_ID": 58438, "ELEMENT_SET_NO": 999, "REV_AT_EPOCH": 14099, "BSTAR": 7.496295e-06, "MEAN_MOTION_DOT": -5.7e-07, "MEAN_MOTION_DDOT": 0}, {"OBJECT_NAME": "STARLINK-30962", "OBJECT_ID": "2023-183X", "EPOCH": "2026-06-10T21:25:40.682208", "MEAN_MOTION": 15.2758564, "ECCENTRICITY": 0.00014035, "INCLINATION": 43.004, "RA_OF_ASC_NODE": 234.8209, "ARG_OF_PERICENTER": 267.1995, "MEAN_ANOMALY": 92.8696, "EPHEMERIS_TYPE": 0, "CLASSIFICATION_TYPE": "U", "NORAD_CAT_ID": 58458, "ELEMENT_SET_NO": 999, "REV_AT_EPOCH": 14099, "BSTAR": -7.0174111e-05, "MEAN_MOTION_DOT": -2.193e-05, "MEAN_MOTION_DDOT": 0}, {"OBJECT_NAME": "STARLINK-30979", "OBJECT_ID": "2023-186N", "EPOCH": "2026-06-11T17:07:13.417536", "MEAN_MOTION": 15.27580944, "ECCENTRICITY": 0.00012587, "INCLINATION": 43.0031, "RA_OF_ASC_NODE": 252.8487, "ARG_OF_PERICENTER": 263.2856, "MEAN_ANOMALY": 96.7853, "EPHEMERIS_TYPE": 0, "CLASSIFICATION_TYPE": "U", "NORAD_CAT_ID": 58485, "ELEMENT_SET_NO": 999, "REV_AT_EPOCH": 14026, "BSTAR": 5.7861386e-05, "MEAN_MOTION_DOT": 1.33e-05, "MEAN_MOTION_DDOT": 0}, {"OBJECT_NAME": "STARLINK-30989", "OBJECT_ID": "2023-191C", "EPOCH": "2026-06-11T02:19:22.673280", "MEAN_MOTION": 15.27582134, "ECCENTRICITY": 2.828e-05, "INCLINATION": 42.9945, "RA_OF_ASC_NODE": 296.1901, "ARG_OF_PERICENTER": 93.9592, "MEAN_ANOMALY": 266.1292, "EPHEMERIS_TYPE": 0, "CLASSIFICATION_TYPE": "U", "NORAD_CAT_ID": 58510, "ELEMENT_SET_NO": 999, "REV_AT_EPOCH": 13978, "BSTAR": 4.8107969e-05, "MEAN_MOTION_DOT": 1.063e-05, "MEAN_MOTION_DDOT": 0}, {"OBJECT_NAME": "STARLINK-31009", "OBJECT_ID": "2023-191Y", "EPOCH": "2026-06-11T19:03:38.851488", "MEAN_MOTION": 15.27532085, "ECCENTRICITY": 5.761e-05, "INCLINATION": 43.0026, "RA_OF_ASC_NODE": 291.9533, "ARG_OF_PERICENTER": 303.8039, "MEAN_ANOMALY": 56.2758, "EPHEMERIS_TYPE": 0, "CLASSIFICATION_TYPE": "U", "NORAD_CAT_ID": 58530, "ELEMENT_SET_NO": 999, "REV_AT_EPOCH": 13988, "BSTAR": 0.00035072494, "MEAN_MOTION_DOT": 9.387e-05, "MEAN_MOTION_DDOT": 0}, {"OBJECT_NAME": "STARLINK-31053", "OBJECT_ID": "2023-192U", "EPOCH": "2026-06-11T19:46:19.280064", "MEAN_MOTION": 15.34395349, "ECCENTRICITY": 0.00014097, "INCLINATION": 53.1613, "RA_OF_ASC_NODE": 344.3734, "ARG_OF_PERICENTER": 80.3961, "MEAN_ANOMALY": 279.7201, "EPHEMERIS_TYPE": 0, "CLASSIFICATION_TYPE": "U", "NORAD_CAT_ID": 58549, "ELEMENT_SET_NO": 999, "REV_AT_EPOCH": 14041, "BSTAR": -2.5577735e-05, "MEAN_MOTION_DOT": -1.24e-05, "MEAN_MOTION_DDOT": 0}, {"OBJECT_NAME": "STARLINK-31087", "OBJECT_ID": "2023-200J", "EPOCH": "2026-06-10T22:11:09.654720", "MEAN_MOTION": 15.27567687, "ECCENTRICITY": 8.757e-05, "INCLINATION": 43.0013, "RA_OF_ASC_NODE": 1.991, "ARG_OF_PERICENTER": 297.0094, "MEAN_ANOMALY": 63.0669, "EPHEMERIS_TYPE": 0, "CLASSIFICATION_TYPE": "U", "NORAD_CAT_ID": 58597, "ELEMENT_SET_NO": 999, "REV_AT_EPOCH": 13776, "BSTAR": -2.3066775e-05, "MEAN_MOTION_DOT": -8.96e-06, "MEAN_MOTION_DDOT": 0}, {"OBJECT_NAME": "STARLINK-31129", "OBJECT_ID": "2023-203G", "EPOCH": "2026-06-11T12:49:51.259584", "MEAN_MOTION": 15.27666812, "ECCENTRICITY": 0.0002104, "INCLINATION": 43.0052, "RA_OF_ASC_NODE": 257.122, "ARG_OF_PERICENTER": 270.6689, "MEAN_ANOMALY": 89.3921, "EPHEMERIS_TYPE": 0, "CLASSIFICATION_TYPE": "U", "NORAD_CAT_ID": 58624, "ELEMENT_SET_NO": 999, "REV_AT_EPOCH": 13791, "BSTAR": 0.00064173, "MEAN_MOTION_DOT": 0.00017486, "MEAN_MOTION_DDOT": 0}, {"OBJECT_NAME": "TIANMU-1 13", "OBJECT_ID": "2023-205C", "EPOCH": "2026-06-12T00:13:42.583296", "MEAN_MOTION": 15.26759094, "ECCENTRICITY": 0.00065166, "INCLINATION": 97.3465, "RA_OF_ASC_NODE": 184.6761, "ARG_OF_PERICENTER": 1.5754, "MEAN_ANOMALY": 358.5504, "EPHEMERIS_TYPE": 0, "CLASSIFICATION_TYPE": "U", "NORAD_CAT_ID": 58647, "ELEMENT_SET_NO": 999, "REV_AT_EPOCH": 13671, "BSTAR": 0.00020118359, "MEAN_MOTION_DOT": 5.222e-05, "MEAN_MOTION_DDOT": 0}]