LEMUR-2-BASS            
1 58259U 23174D   26162.95736728  .00016116  00000+0  36804-3 0  9998
2 58259  97.3850 247.5972 0007359 179.0923 181.0339 15.42919895144551
UMBRA-07                
1 58297U 23174AT  26162.73473496  .00008340  00000+0  53056-3 0  9994
2 58297  97.3798 218.7034 0004932 100.6472 259.5313 15.09032717142593
LEMUR-2-MJR092620       
1 58340U 23174CN  26162.78233058  .00018229  00000+0  39210-3 0  9999
2 58340  97.3975 252.7125 0007088 133.4041 226.7799 15.44676410144813
STARLINK-30891          
1 58367U 23177S   26161.79286723 -.00002294  00000+0 -73829-4 0  9990
2 58367  43.0214 185.0400 0003951 271.7019  88.3380 15.27565144142409
STARLINK-30929          
1 58386U 23178N   26162.67268239  .00000021  00000+0  11768-4 0  9990
2 58386  53.1598 283.4104 0001139  76.5528 283.5601 15.34396880144272
STARLINK-30919          
1 58411U 23180K   26160.97092929  .00000270  00000+0  19316-4 0  9997
2 58411  43.0049 250.9416 0001006 261.9571  98.1166 15.27579044141647
STARLINK-30969          
1 58438U 23183B   26161.92882055 -.00000057  00000+0  74963-5 0  9996
2 58438  43.0144 235.0955 0002318 280.5337  79.5254 15.27574038140994
STARLINK-30962          
1 58458U 23183X   26161.89283197 -.00002193  00000+0 -70174-4 0  9999
2 58458  43.0040 234.8209 0001403 267.1995  92.8696 15.27585640140994
STARLINK-30979          
1 58485U 23186N   26162.71334974  .00001330  00000+0  57861-4 0  9992
2 58485  43.0031 252.8487 0001258 263.2856  96.7853 15.27580944140263
STARLINK-30989          
1 58510U 23191C   26162.09679020  .00001063  00000+0  48108-4 0  9999
2 58510  42.9945 296.1901 0000282  93.9592 266.1292 15.27582134139785
STARLINK-31009          
1 58530U 23191Y   26162.79419967  .00009387  00000+0  35072-3 0  9992
2 58530  43.0026 291.9533 0000576 303.8039  56.2758 15.27532085139884
STARLINK-31053          
1 58549U 23192U   26162.82383426 -.00001240  00000+0 -25578-4 0  9990
2 58549  53.1613 344.3734 0001409  80.3961 279.7201 15.34395349140415
STARLINK-31087          
1 58597U 23200J   26161.92441730 -.00000896  00000+0 -23067-4 0  9993
2 58597  43.0013   1.9910 0000875 297.0094  63.0669 15.27567687137766
STARLINK-31129          
1 58624U 23203G   26162.53462106  .00017486  00000+0  64173-3 0  9998
2 58624  43.0052 257.1220 0002104 270.6689  89.3921 15.27666812137912
TIANMU-1 13             
1 58647U 23205C   26163.00952064  .00005222  00000+0  20118-3 0  9991
2 58647  97.3465 184.6761 0006516   1.5754 358.5504 15.26759094136715
